ALOS-4 (DAICHI-4)       
1 60182U 24123A   24271.18750898  .00004863  00000+0  65781-3 0  9991
2 60182  97.9211   6.3780 0001380  95.6263 264.5106 14.79459032 13029
